FLOCK 4G-36             
1 62675U 25009BU  26068.70726311  .00013573  00000+0  51122-3 0  9993
2 62675  97.4053 151.0513 0003474 324.2456  35.8550 15.27209548 63701
STARLINK-34162          
1 64018U 25101AA  26067.83160717  .00039654  00000+0  14421-2 0  9992
2 64018  43.0011   2.8362 0001048 235.4706 124.6047 15.27596608 46925
